NORAD_CAT_ID,OBJECT_NAME,OBJECT_TYPE,EPOCH,MEAN_MOTION,ECCENTRICITY,INCLINATION,RA_OF_ASC_NODE,ARG_OF_PERICENTER,MEAN_ANOMALY,BSTAR,MEAN_MOTION_DOT,MEAN_MOTION_DDOT,TLE_LINE0,TLE_LINE1,TLE_LINE2,SEMIMAJOR_AXIS,PERIOD,APOGEE,PERIGEE,DECAYED
51727.0,STARLINK-3532,PAYLOAD,2022-12-22 23:54:02,15.08830152,0.000317,53.2163,193.5393,30.9332,329.1847,-5.6966e-05,-1.195e-05,0.0,0 STARLINK-3532,1 51727U 22016P   22356.99586634 -.00001195  00000-0 -56966-4 0  9995,2 51727  53.2163 193.5393 0003170  30.9332 329.1847 15.08830152 46386,6917.91,95.438,541.9680000000002,537.5830000000002,0.0
51727.0,STARLINK-3532,PAYLOAD,2022-12-23 15:47:54,15.08820916,0.0003236,53.2162,190.5649,30.7764,329.3417,0.0001175,1.581e-05,0.0,0 STARLINK-3532,1 51727U 22016P   22357.65827417  .00001581  00000-0  11750-3 0  9994,2 51727  53.2162 190.5649 0003236  30.7764 329.3417 15.08820916 46489,6917.939,95.439,542.0419999999998,537.565,0.0
51727.0,STARLINK-3532,PAYLOAD,2022-12-23 18:58:41,15.08823256,0.0003195,53.2165,189.97,30.7191,329.3988,0.00010369,1.361e-05,0.0,0 STARLINK-3532,1 51727U 22016P   22357.79075514  .00001361  00000-0  10369-3 0  9993,2 51727  53.2165 189.9700 0003195  30.7191 329.3988 15.08823256 47563,6917.932,95.439,542.007,537.586,0.0
51727.0,STARLINK-3532,PAYLOAD,2022-12-24 06:06:23,15.08828642,0.0003217,53.2171,187.8885,32.1616,327.9572,0.00012029,1.626e-05,0.0,0 STARLINK-3532,1 51727U 22016P   22358.25443570  .00001626  00000-0  12029-3 0  9995,2 51727  53.2171 187.8885 0003217  32.1616 327.9572 15.08828642 46571,6917.915,95.438,542.006,537.555,0.0
51727.0,STARLINK-3532,PAYLOAD,2022-12-24 20:24:51,15.08834242,0.0003346,53.2182,185.2135,33.2992,326.821,0.00010623,1.402e-05,0.0,0 STARLINK-3532,1 51727U 22016P   22358.85059687  .00001402  00000-0  10623-3 0  9993,2 51727  53.2182 185.2135 0003346  33.2992 326.8210 15.08834242 47723,6917.898,95.438,542.078,537.448,0.0
51727.0,STARLINK-3532,PAYLOAD,2022-12-25 12:18:42,15.08838839,0.0003342,53.2178,182.2392,34.8504,325.2706,0.00010788,1.429e-05,0.0,0 STARLINK-3532,1 51727U 22016P   22359.51299536  .00001429  00000-0  10788-3 0  9997,2 51727  53.2178 182.2392 0003342  34.8504 325.2706 15.08838839 46764,6917.884,95.438,542.061,537.437,0.0
51727.0,STARLINK-3532,PAYLOAD,2022-12-25 15:29:28,15.08841316,0.0003338,53.2178,181.6444,35.4074,324.7139,9.3048e-05,1.193e-05,0.0,0 STARLINK-3532,1 51727U 22016P   22359.64547438  .00001193  00000-0  93048-4 0  9997,2 51727  53.2178 181.6444 0003338  35.4074 324.7139 15.08841316 46789,6917.876,95.437,542.0509999999998,537.432,0.0
51727.0,STARLINK-3532,PAYLOAD,2022-12-26 05:47:56,15.08845939,0.0003379,53.2178,178.9681,36.8097,323.3127,0.00010807,1.432e-05,0.0,0 STARLINK-3532,1 51727U 22016P   22360.24163061  .00001432  00000-0  10807-3 0  9998,2 51727  53.2178 178.9681 0003379  36.8097 323.3127 15.08845939 46873,6917.861999999999,95.437,542.065,537.39,0.0
51727.0,STARLINK-3532,PAYLOAD,2022-12-26 18:31:01,15.08850566,0.0003393,53.2177,176.58900000000003,38.0188,322.1043,0.00011293,1.51e-05,0.0,0 STARLINK-3532,1 51727U 22016P   22360.77154469  .00001510  00000-0  11293-3 0  9995,2 51727  53.2177 176.5890 0003393  38.0188 322.1043 15.08850566 48013,6917.848000000001,95.437,542.06,537.366,0.0
51727.0,STARLINK-3532,PAYLOAD,2022-12-27 12:00:15,15.08855827,0.0003422,53.2175,173.3178,39.7984,320.3259,0.00011363,1.521e-05,0.0,0 STARLINK-3532,1 51727U 22016P   22361.50017555  .00001521  00000-0  11363-3 0  9991,2 51727  53.2175 173.3178 0003422  39.7984 320.3259 15.08855827 47068,6917.831999999999,95.437,542.064,537.33,0.0
51727.0,STARLINK-3532,PAYLOAD,2022-12-27 18:21:48,15.08849179,0.0003427,53.2177,172.1282,39.7341,320.3902,1.9385e-05,2e-07,0.0,0 STARLINK-3532,1 51727U 22016P   22361.76514032  .00000020  00000-0  19385-4 0  9997,2 51727  53.2177 172.1282 0003427  39.7341 320.3902 15.08849179 47108,6917.852,95.437,542.0880000000002,537.347,0.0
51727.0,STARLINK-3532,PAYLOAD,2022-12-27 19:57:11,15.0884738,0.0003426,53.2178,171.831,39.4686,320.6555,9.0702e-07,-2.74e-06,0.0,0 STARLINK-3532,1 51727U 22016P   22361.83138151 -.00000274  00000-0  90702-6 0  9995,2 51727  53.2178 171.8310 0003426  39.4686 320.6555 15.08847380 48172,6917.858,95.437,542.0930000000002,537.3530000000002,0.0
51727.0,STARLINK-3532,PAYLOAD,2022-12-28 11:51:02,15.0884875,0.0003464,53.2181,168.8569,40.8631,319.2621,7.9654e-06,-1.62e-06,0.0,0 STARLINK-3532,1 51727U 22016P   22362.49377624 -.00000162  00000-0  79654-5 0  9996,2 51727  53.2181 168.8569 0003464  40.8631 319.2621 15.08848750 47210,6917.854,95.437,542.115,537.322,0.0
51727.0,STARLINK-3532,PAYLOAD,2022-12-28 19:47:58,15.08841232,0.0003441,53.218,167.3689,39.6506,320.4737,-8.8715e-05,-1.701e-05,0.0,0 STARLINK-3532,1 51727U 22016P   22362.82498247 -.00001701  00000-0 -88715-4 0  9996,2 51727  53.2180 167.3689 0003441  39.6506 320.4737 15.08841232 48321,6917.877,95.437,542.122,537.361,0.0
51727.0,STARLINK-3532,PAYLOAD,2022-12-29 03:44:53,15.08845059,0.0003461,53.2179,165.8822,40.0477,320.0769,-4.9585e-05,-1.078e-05,0.0,0 STARLINK-3532,1 51727U 22016P   22363.15617825 -.00001078  00000-0 -49585-4 0  9997,2 51727  53.2179 165.8822 0003461  40.0477 320.0769 15.08845059 47316,6917.865,95.437,542.124,537.336,0.0
51727.0,STARLINK-3532,PAYLOAD,2022-12-29 19:38:44,15.08844185,0.0003453,53.2176,162.91,39.8368,320.2877,4.569e-05,4.38e-06,0.0,0 STARLINK-3532,1 51727U 22016P   22363.81857403  .00000438  00000-0  45690-4 0  9998,2 51727  53.2176 162.9100 0003453  39.8368 320.2877 15.08844185 48475,6917.868,95.437,542.121,537.344,0.0
51727.0,STARLINK-3532,PAYLOAD,2022-12-30 03:35:40,15.08849785,0.0003454,53.2177,161.4232,40.4734,319.6515,6.168e-05,6.93e-06,0.0,0 STARLINK-3532,1 51727U 22016P   22364.14976897  .00000693  00000-0  61680-4 0  9994,2 51727  53.2177 161.4232 0003454  40.4734 319.6515 15.08849785 47462,6917.85,95.437,542.105,537.326,0.0
51727.0,STARLINK-3532,PAYLOAD,2022-12-31 03:26:27,15.08846287,0.0003512,53.2184,156.9637,42.9872,317.1394,0.00012462,1.696e-05,0.0,0 STARLINK-3532,1 51727U 22016P   22365.14336869  .00001696  00000-0  12462-3 0  9991,2 51727  53.2184 156.9637 0003512  42.9872 317.1394 15.08846287 48679,6917.861,95.437,542.156,537.297,0.0
51727.0,STARLINK-3532,PAYLOAD,2022-12-31 11:23:22,15.08844899,0.0003435,53.2191,155.476,41.9878,318.1377,0.0001036,1.361e-05,0.0,0 STARLINK-3532,1 51727U 22016P   22365.47456874  .00001361  00000-0  10360-3 0  9990,2 51727  53.2191 155.4760 0003435  41.9878 318.1377 15.08844899 47664,6917.865,95.437,542.107,537.354,0.0
51727.0,STARLINK-3532,PAYLOAD,2022-12-31 19:20:18,15.0884396,0.0003373,53.2179,153.9889,41.3138,318.8109,2.7374000000000003e-06,-2.45e-06,0.0,0 STARLINK-3532,1 51727U 22016P   22365.80577154 -.00000245  00000-0  27374-5 0  9998,2 51727  53.2179 153.9889 0003373  41.3138 318.8109 15.08843960 48770,6917.868,95.437,542.067,537.4,0.0
51727.0,STARLINK-3532,PAYLOAD,2023-01-01 09:38:47,15.08835751,0.0003396,53.2178,151.3152,43.1872,316.9386,1.7565e-06,-2.61e-06,0.0,0 STARLINK-3532,1 51727U 22016P   23001.40193588 -.00000261  00000-0  17565-5 0  9996,2 51727  53.2178 151.3152 0003396  43.1872 316.9386 15.08835751 47802,6917.893,95.438,542.1080000000002,537.409,0.0
51727.0,STARLINK-3532,PAYLOAD,2023-01-01 16:00:20,15.08827547,0.0003426,53.2185,150.1236,44.5363,315.5904,-6.5091e-05,-1.324e-05,0.0,0 STARLINK-3532,1 51727U 22016P   23001.66690465 -.00001324  00000-0 -65091-4 0  9998,2 51727  53.2185 150.1236 0003426  44.5363 315.5904 15.08827547 48901,6917.918000000002,95.438,542.154,537.413,0.0
51727.0,STARLINK-3532,PAYLOAD,2023-01-02 03:08:02,15.08832263,0.000317,53.2192,148.0415,46.7697,313.356,-0.0001057,-1.97e-05,0.0,0 STARLINK-3532,1 51727U 22016P   23002.13058520 -.00001970  00000-0 -10570-3 0  9999,2 51727  53.2192 148.0415 0003170  46.7697 313.3560 15.08832263 47919,6917.904,95.438,541.962,537.576,0.0
51727.0,STARLINK-3532,PAYLOAD,2023-01-02 19:01:53,15.08838237,0.000334,53.2184,145.0688,43.5207,316.6048,7.8202e-05,9.56e-06,0.0,0 STARLINK-3532,1 51727U 22016P   23002.79297742  .00000956  00000-0  78202-4 0  9990,2 51727  53.2184 145.0688 0003340  43.5207 316.6048 15.08838237 49073,6917.886,95.438,542.061,537.44,0.0
51727.0,STARLINK-3532,PAYLOAD,2023-01-03 02:58:48,15.08842692,0.0003316,53.2191,143.5815,44.4245,315.7013,7.1195e-05,8.45e-06,0.0,0 STARLINK-3532,1 51727U 22016P   23003.12417475  .00000845  00000-0  71195-4 0  9996,2 51727  53.2191 143.5815 0003316  44.4245 315.7013 15.08842692 48061,6917.871999999999,95.437,542.031,537.443,0.0
51727.0,STARLINK-3532,PAYLOAD,2023-01-03 15:41:54,15.08833002,0.0003338,53.2183,141.2033,42.2213,317.9036,0.00012714,1.735e-05,0.0,0 STARLINK-3532,1 51727U 22016P   23003.65410080  .00001735  00000-0  12714-3 0  9999,2 51727  53.2183 141.2033 0003338  42.2213 317.9036 15.08833002 48147,6917.901999999999,95.438,542.076,537.4580000000002,0.0
51727.0,STARLINK-3532,PAYLOAD,2023-01-04 15:32:41,15.08842584,0.0003443,53.2169,136.7448,41.4949,318.6304,7.024100000000001e-05,8.29e-06,0.0,0 STARLINK-3532,1 51727U 22016P   23004.64769773  .00000829  00000-0  70241-4 0  9998,2 51727  53.2169 136.7448 0003443  41.4949 318.6304 15.08842584 49359,6917.871999999999,95.437,542.119,537.356,0.0
51727.0,STARLINK-3532,PAYLOAD,2023-01-05 09:01:54,15.08852995,0.0003488999999999,53.2172,133.471,42.2894,317.8367,0.00012812,1.752e-05,0.0,0 STARLINK-3532,1 51727U 22016P   23005.37632579  .00001752  00000-0  12812-3 0  9997,2 51727  53.2172 133.4710 0003489  42.2894 317.8367 15.08852995 49466,6917.840999999999,95.437,542.119,537.2919999999998,0.0
51727.0,STARLINK-3532,PAYLOAD,2023-01-05 12:12:40,15.08850538,0.0003347,53.2181,132.8764,40.8363,319.288,0.00010489,1.382e-05,0.0,0 STARLINK-3532,1 51727U 22016P   23005.50880539  .00001382  00000-0  10489-3 0  9990,2 51727  53.2181 132.8764 0003347  40.8363 319.2880 15.08850538 48428,6917.848000000001,95.437,542.029,537.398,0.0
